{"type": "FeatureCollection", "features": [ {"type": "Feature", "properties": {"norad_id": 66052, "name": "HRC MONOBLOCK CAMERA", "group": "stations", "lat": 51.077340971923014, "lon": -168.12896111072996, "alt_km": 397.5541211567279, "timestamp": "2025-12-18T10:51:24.537393+00:00", "meta": {"OBJECT_NAME": "HRC MONOBLOCK CAMERA", "OBJECT_ID": "1998-067XR", "EPOCH": "2025-12-17T20:36:55.440000", "MEAN_MOTION": 15.54495982, "ECCENTRICITY": 0.00027135, "INCLINATION": 51.6291, "RA_OF_ASC_NODE": 115.974, "ARG_OF_PERICENTER": 206.7069, "MEAN_ANOMALY": 153.3783, "EPHEMERIS_TYPE": 0, "CLASSIFICATION_TYPE": "U", "NORAD_CAT_ID": 66052, "ELEMENT_SET_NO": 999, "REV_AT_EPOCH": 963, "BSTAR": 0.00045614102, "MEAN_MOTION_DOT": 0.0003024, "MEAN_MOTION_DDOT": 0}, "tle": {"line1": "1 66052U 98067XR  25351.85897500  .00030240  00000+0  45614-3 0  9998", "line2": "2 66052  51.6291 115.9740 0002713 206.7069 153.3783 15.54495982  9635"}}, "geometry": {"type": "Point", "coordinates": [-168.12896111072996, 51.077340971923014]}}, {"type": "Feature", "properties": {"norad_id": 66174, "name": "HTV-X1", "group": "stations", "lat": -41.870374442088945, "lon": -20.56627902780854, "alt_km": 420.13507803374614, "timestamp": "2025-12-18T10:51:24.537403+00:00", "meta": {"OBJECT_NAME": "HTV-X1", "OBJECT_ID": "2025-241A", "EPOCH": "2025-12-17T19:54:10.621440", "MEAN_MOTION": 15.49640803, "ECCENTRICITY": 0.00031686, "INCLINATION": 51.6309, "RA_OF_ASC_NODE": 117.2752, "ARG_OF_PERICENTER": 263.8701, "MEAN_ANOMALY": 96.1927, "EPHEMERIS_TYPE": 0, "CLASSIFICATION_TYPE": "U", "NORAD_CAT_ID": 66174, "ELEMENT_SET_NO": 999, "REV_AT_EPOCH": 51, "BSTAR": 0.00014328078, "MEAN_MOTION_DOT": 7.629e-05, "MEAN_MOTION_DDOT": 0}, "tle": {"line1": "1 66174U 25241A   25351.82928960  .00007629  00000+0  14328-3 0  9992", "line2": "2 66174  51.6309 117.2752 0003168 263.8701  96.1927 15.49640803   510"}}, "geometry": {"type": "Point", "coordinates": [-20.56627902780854, -41.870374442088945]}}, {"type": "Feature", "properties": {"norad_id": 66515, "name": "SZ-21 MODULE", "group": "stations", "lat": -5.085850845661681, "lon": 166.9704499980643, "alt_km": 380.95714515681175, "timestamp": "2025-12-18T10:51:24.537413+00:00", "meta": {"OBJECT_NAME": "SZ-21 MODULE", "OBJECT_ID": "2025-246C", "EPOCH": "2025-12-17T06:26:59.040960", "MEAN_MOTION": 15.62718015, "ECCENTRICITY": 0.00059901, "INCLINATION": 41.4771, "RA_OF_ASC_NODE": 348.414, "ARG_OF_PERICENTER": 284.3104, "MEAN_ANOMALY": 75.707, "EPHEMERIS_TYPE": 0, "CLASSIFICATION_TYPE": "U", "NORAD_CAT_ID": 66515, "ELEMENT_SET_NO": 999, "REV_AT_EPOCH": 515, "BSTAR": 0.00025031156, "MEAN_MOTION_DOT": 0.00022864, "MEAN_MOTION_DDOT": 0}, "tle": {"line1": "1 66515U 25246C   25351.26873890  .00022864  00000+0  25031-3 0  9996", "line2": "2 66515  41.4771 348.4140 0005990 284.3104  75.7070 15.62718015  5151"}}, "geometry": {"type": "Point", "coordinates": [166.9704499980643, -5.085850845661681]}}, {"type": "Feature", "properties": {"norad_id": 66645, "name": "SHENZHOU-22", "group": "stations", "lat": -19.77293482412169, "lon": -173.96008431125952, "alt_km": 394.50683460479013, "timestamp": "2025-12-18T10:51:24.537424+00:00", "meta": {"OBJECT_NAME": "SHENZHOU-22", "OBJECT_ID": "2025-272A", "EPOCH": "2025-12-17T17:03:03.263616", "MEAN_MOTION": 15.59389869, "ECCENTRICITY": 0.00077031, "INCLINATION": 41.4683, "RA_OF_ASC_NODE": 346.526, "ARG_OF_PERICENTER": 74.1787, "MEAN_ANOMALY": 285.99, "EPHEMERIS_TYPE": 0, "CLASSIFICATION_TYPE": "U", "NORAD_CAT_ID": 66645, "ELEMENT_SET_NO": 999, "REV_AT_EPOCH": 26357, "BSTAR": 0.00025361987, "MEAN_MOTION_DOT": 0.0002035, "MEAN_MOTION_DDOT": 0}, "tle": {"line1": "1 66645U 25272A   25351.71045444  .00020350  00000+0  25362-3 0  9990", "line2": "2 66645  41.4683 346.5260 0007703  74.1787 285.9900 15.59389869263571"}}, "geometry": {"type": "Point", "coordinates": [-173.96008431125952, -19.77293482412169]}}, {"type": "Feature", "properties": {"norad_id": 66664, "name": "SOYUZ-MS 28", "group": "stations", "lat": -41.8703755463585, "lon": -20.56627678866849, "alt_km": 420.13507804400797, "timestamp": "2025-12-18T10:51:24.537434+00:00", "meta": {"OBJECT_NAME": "SOYUZ-MS 28", "OBJECT_ID": "2025-275A", "EPOCH": "2025-12-17T19:54:10.621440", "MEAN_MOTION": 15.49640803, "ECCENTRICITY": 0.00031686, "INCLINATION": 51.6309, "RA_OF_ASC_NODE": 117.2752, "ARG_OF_PERICENTER": 263.8701, "MEAN_ANOMALY": 96.1927, "EPHEMERIS_TYPE": 0, "CLASSIFICATION_TYPE": "U", "NORAD_CAT_ID": 66664, "ELEMENT_SET_NO": 999, "REV_AT_EPOCH": 128, "BSTAR": 0.00014328078, "MEAN_MOTION_DOT": 7.629e-05, "MEAN_MOTION_DDOT": 0}, "tle": {"line1": "1 66664U 25275A   25351.82928960  .00007629  00000+0  14328-3 0  9993", "line2": "2 66664  51.6309 117.2752 0003168 263.8701  96.1927 15.49640803  1289"}}, "geometry": {"type": "Point", "coordinates": [-20.56627678866849, -41.8703755463585]}}, {"type": "Feature", "properties": {"norad_id": 66906, "name": "1998-067XS", "group": "stations", "lat": -47.031642607738924, "lon": 55.8071800901799, "alt_km": 417.65976818376294, "timestamp": "2025-12-18T10:51:24.537444+00:00", "meta": {"OBJECT_NAME": "1998-067XS", "OBJECT_ID": "1998-067XS", "EPOCH": "2025-12-17T16:35:43.301760", "MEAN_MOTION": 15.50834133, "ECCENTRICITY": 0.0003138, "INCLINATION": 51.6309, "RA_OF_ASC_NODE": 117.8563, "ARG_OF_PERICENTER": 226.0893, "MEAN_ANOMALY": 133.9837, "EPHEMERIS_TYPE": 0, "CLASSIFICATION_TYPE": "U", "NORAD_CAT_ID": 66906, "ELEMENT_SET_NO": 999, "REV_AT_EPOCH": 238, "BSTAR": 0.00042869394, "MEAN_MOTION_DOT": 0.00024822, "MEAN_MOTION_DDOT": 0}, "tle": {"line1": "1 66906U 98067XS  25351.69147340  .00024822  00000+0  42869-3 0  9996", "line2": "2 66906  51.6309 117.8563 0003138 226.0893 133.9837 15.50834133  2389"}}, "geometry": {"type": "Point", "coordinates": [55.8071800901799, -47.031642607738924]}}, {"type": "Feature", "properties": {"norad_id": 66907, "name": "1998-067XT", "group": "stations", "lat": -24.072274706073227, "lon": 93.27119450078129, "alt_km": 412.76246865685516, "timestamp": "2025-12-18T10:51:24.537455+00:00", "meta": {"OBJECT_NAME": "1998-067XT", "OBJECT_ID": "1998-067XT", "EPOCH": "2025-12-17T19:32:19.947264", "MEAN_MOTION": 15.52074588, "ECCENTRICITY": 0.00039845, "INCLINATION": 51.6304, "RA_OF_ASC_NODE": 117.1744, "ARG_OF_PERICENTER": 257.0045, "MEAN_ANOMALY": 103.05, "EPHEMERIS_TYPE": 0, "CLASSIFICATION_TYPE": "U", "NORAD_CAT_ID": 66907, "ELEMENT_SET_NO": 999, "REV_AT_EPOCH": 240, "BSTAR": 0.00089323104, "MEAN_MOTION_DOT": 0.00054815, "MEAN_MOTION_DDOT": 0}, "tle": {"line1": "1 66907U 98067XT  25351.81411976  .00054815  00000+0  89323-3 0  9991", "line2": "2 66907  51.6304 117.1744 0003984 257.0045 103.0500 15.52074588  2401"}}, "geometry": {"type": "Point", "coordinates": [93.27119450078129, -24.072274706073227]}}, {"type": "Feature", "properties": {"norad_id": 66908, "name": "1998-067XU", "group": "stations", "lat": -21.31708738969795, "lon": 95.98242152094619, "alt_km": 412.463807515438, "timestamp": "2025-12-18T10:51:24.537468+00:00", "meta": {"OBJECT_NAME": "1998-067XU", "OBJECT_ID": "1998-067XU", "EPOCH": "2025-12-17T14:53:17.519424", "MEAN_MOTION": 15.52149323, "ECCENTRICITY": 0.00041086, "INCLINATION": 51.6303, "RA_OF_ASC_NODE": 118.1303, "ARG_OF_PERICENTER": 254.9738, "MEAN_ANOMALY": 105.0797, "EPHEMERIS_TYPE": 0, "CLASSIFICATION_TYPE": "U", "NORAD_CAT_ID": 66908, "ELEMENT_SET_NO": 999, "REV_AT_EPOCH": 237, "BSTAR": 0.00089135269, "MEAN_MOTION_DOT": 0.00054848, "MEAN_MOTION_DDOT": 0}, "tle": {"line1": "1 66908U 98067XU  25351.62034166  .00054848  00000+0  89135-3 0  9990", "line2": "2 66908  51.6303 118.1303 0004108 254.9738 105.0797 15.52149323  2373"}}, "geometry": {"type": "Point", "coordinates": [95.98242152094619, -21.31708738969795]}}, {"type": "Feature", "properties": {"norad_id": 66909, "name": "SILVERSAT", "group": "stations", "lat": -17.86809056101549, "lon": 99.18418734870605, "alt_km": 411.8624176643052, "timestamp": "2025-12-18T10:51:24.537478+00:00", "meta": {"OBJECT_NAME": "SILVERSAT", "OBJECT_ID": "1998-067XV", "EPOCH": "2025-12-17T14:52:13.125504", "MEAN_MOTION": 15.52286885, "ECCENTRICITY": 0.00039934, "INCLINATION": 51.6308, "RA_OF_ASC_NODE": 118.1251, "ARG_OF_PERICENTER": 257.3923, "MEAN_ANOMALY": 102.662, "EPHEMERIS_TYPE": 0, "CLASSIFICATION_TYPE": "U", "NORAD_CAT_ID": 66909, "ELEMENT_SET_NO": 999, "REV_AT_EPOCH": 237, "BSTAR": 0.00095195038, "MEAN_MOTION_DOT": 0.00058931, "MEAN_MOTION_DDOT": 0}, "tle": {"line1": "1 66909U 98067XV  25351.61959636  .00058931  00000+0  95195-3 0  9998", "line2": "2 66909  51.6308 118.1251 0003993 257.3923 102.6620 15.52286885  2378"}}, "geometry": {"type": "Point", "coordinates": [99.18418734870605, -17.86809056101549]}}, {"type": "Feature", "properties": {"norad_id": 66910, "name": "1998-067XW", "group": "stations", "lat": -10.258379623024034, "lon": 105.7177580592053, "alt_km": 412.7101737279354, "timestamp": "2025-12-18T10:51:24.537488+00:00", "meta": {"OBJECT_NAME": "1998-067XW", "OBJECT_ID": "1998-067XW", "EPOCH": "2025-12-17T14:49:41.645568", "MEAN_MOTION": 15.52327753, "ECCENTRICITY": 0.00045296, "INCLINATION": 51.6302, "RA_OF_ASC_NODE": 118.1137, "ARG_OF_PERICENTER": 233.5237, "MEAN_ANOMALY": 126.5336, "EPHEMERIS_TYPE": 0, "CLASSIFICATION_TYPE": "U", "NORAD_CAT_ID": 66910, "ELEMENT_SET_NO": 999, "REV_AT_EPOCH": 237, "BSTAR": 0.00083127757, "MEAN_MOTION_DOT": 0.00051432, "MEAN_MOTION_DDOT": 0}, "tle": {"line1": "1 66910U 98067XW  25351.61784312  .00051432  00000+0  83128-3 0  9999", "line2": "2 66910  51.6302 118.1137 0004529 233.5237 126.5336 15.52327753  2376"}}, "geometry": {"type": "Point", "coordinates": [105.7177580592053, -10.258379623024034]}}]}